56290,STARLINK-30103,2023,95.84,750.0,+,43.0,Active,1,LEO,USA,USA,Commercial,Communications,Falcon,1 56290U 23056E   25301.44016773  .00001016  00000+0  90276-4 0  9996,2 56290  43.0039 208.5944 0001325 270.2588  89.8103 15.02538545140134,15.02538545,0.0001325,LEO
56291,STARLINK-30113,2023,95.84,750.0,+,43.0,Active,1,LEO,USA,USA,Commercial,Communications,Falcon,1 56291U 23056F   25301.44682829  .00004417  00000+0  34181-3 0  9998,2 56291  43.0016 208.6362 0001062 265.2939  94.7782 15.02537052140137,15.02537052,0.0001062,LEO
56292,STARLINK-30098,2023,95.84,750.0,+,43.0,Active,1,LEO,USA,USA,Commercial,Communications,Falcon,1 56292U 23056G   25301.43683707  .00000929  00000+0  83859-4 0  9995,2 56292  43.0029 208.5584 0001138 274.3385  85.7327 15.02536805140137,15.02536805,0.0001138,LEO
56293,STARLINK-30090,2023,95.84,750.0,+,43.01,Active,1,LEO,USA,USA,Commercial,Communications,Falcon,1 56293U 23056H   25301.03142554  .00000836  00000+0  76994-4 0  9991,2 56293  43.0049 211.5221 0001659 261.2218  98.8437 15.02536174140068,15.02536174,0.0001659,LEO
56294,STARLINK-30049,2023,95.84,750.0,+,43.0,Active,1,LEO,USA,USA,Commercial,Communications,Falcon,1 56294U 23056J   25301.02809359 -.00001520  00000+0 -97426-4 0  9990,2 56294  43.0033 211.4381 0001383 238.7757 121.2950 15.02543620140064,15.0254362,0.0001383,LEO
56295,STARLINK-30083,2023,95.84,750.0,+,43.0,Active,1,LEO,USA,USA,Commercial,Communications,Falcon,1 56295U 23056K   25300.68954672 -.00000049  00000+0  11450-4 0  9998,2 56295  43.0030 187.1060 0001212 271.5120  88.5583 15.02536625140317,15.02536625,0.0001212,LEO
56296,STARLINK-30089,2023,95.84,750.0,+,43.0,Active,1,LEO,USA,USA,Commercial,Communications,Falcon,1 56296U 23056L   25301.62048748  .00000122  00000+0  24106-4 0  9995,2 56296  43.0040 169.0139 0001344 266.5681  93.5007 15.02532958140601,15.02532958,0.0001344,LEO
56297,STARLINK-30086,2023,95.84,750.0,+,43.0,Active,1,LEO,USA,USA,Commercial,Communications,Falcon,1 56297U 23056M   25301.47345392  .00001293  00000+0  11075-3 0  9994,2 56297  43.0026 208.7590 0001082 271.1644  88.9075 15.02537598140134,15.02537598,0.0001082,LEO
56298,STARLINK-30109,2023,95.84,750.0,+,43.0,Active,1,LEO,USA,USA,Commercial,Communications,Falcon,1 56298U 23056N   25301.48011657  .00000348  00000+0  40856-4 0  9990,2 56298  43.0016 208.8115 0000983 267.0455  93.0275 15.02535099140190,15.02535099,9.83e-05,LEO
56299,STARLINK-30108,2023,95.84,750.0,+,43.0,Active,1,LEO,USA,USA,Commercial,Communications,Falcon,1 56299U 23056P   25300.11763971  .00000015  00000+0  16145-4 0  9998,2 56299  43.0030 203.6523 0001188 268.4858  91.5848 15.02535175140131,15.02535175,0.0001188,LEO
56300,STARLINK-30104,2023,95.84,750.0,+,43.0,Active,1,LEO,USA,USA,Commercial,Communications,Falcon,1 56300U 23056Q   25301.43351148  .00001235  00000+0  10646-3 0  9990,2 56300  43.0030 208.5439 0001262 268.7411  91.3287 15.02540473140193,15.02540473,0.0001262,LEO
56301,STARLINK-30101,2023,95.84,750.0,+,43.0,Active,1,LEO,USA,USA,Commercial,Communications,Falcon,1 56301U 23056R   25301.46348456 -.00000200  00000+0  27162-6 0  9998,2 56301  43.0031 208.7497 0001203 268.3836  91.6868 15.02527269140199,15.02527269,0.0001203,LEO
56302,STARLINK-30111,2023,95.84,750.0,+,43.0,Active,1,LEO,USA,USA,Commercial,Communications,Falcon,1 56302U 23056S   25301.45680857  .00000479  00000+0  50529-4 0  9990,2 56302  43.0024 208.6347 0001132 272.5311  87.5401 15.02536846140199,15.02536846,0.0001132,LEO
56304,STARLINK-30099,2023,95.84,750.0,+,43.0,Active,1,LEO,USA,USA,Commercial,Communications,Falcon,1 56304U 23056U   25301.45347154  .00001144  00000+0  99770-4 0  9993,2 56304  43.0034 208.5978 0001425 273.8197  86.2483 15.02540650140196,15.0254065,0.0001425,LEO
56305,STARLINK-30094,2023,95.84,750.0,+,43.0,Active,1,LEO,USA,USA,Commercial,Communications,Falcon,1 56305U 23056V   25300.45298003  .00000656  00000+0  63618-4 0  9990,2 56305  43.0032 213.9806 0001081 278.2645  81.8075 15.02533360140042,15.0253336,0.0001081,LEO
56306,STARLINK-30112,2023,95.84,750.0,+,43.0,Active,1,LEO,USA,USA,Commercial,Communications,Falcon,1 56306U 23056W   25301.46013979  .00000573  00000+0  57460-4 0  9996,2 56306  43.0026 208.6583 0000836 271.0208  89.0539 15.02533309140196,15.02533309,8.36e-05,LEO
