[{"OBJECT_NAME":"STARLINK-30103","OBJECT_ID":"2023-056E","EPOCH":"2025-10-28T10:33:50.491872","MEAN_MOTION":15.02538545,"ECCENTRICITY":0.00013258,"INCLINATION":43.0039,"RA_OF_ASC_NODE":208.5944,"ARG_OF_PERICENTER":270.2588,"MEAN_ANOMALY":89.8103,"EPHEMERIS_TYPE":0,"CLASSIFICATION_TYPE":"U","NORAD_CAT_ID":56290,"ELEMENT_SET_NO":999,"REV_AT_EPOCH":14013,"BSTAR":9.0275961e-5,"MEAN_MOTION_DOT":1.016e-5,"MEAN_MOTION_DDOT":0},{"OBJECT_NAME":"STARLINK-30113","OBJECT_ID":"2023-056F","EPOCH":"2025-10-28T10:43:25.964256","MEAN_MOTION":15.02537052,"ECCENTRICITY":0.00010627,"INCLINATION":43.0016,"RA_OF_ASC_NODE":208.6362,"ARG_OF_PERICENTER":265.2939,"MEAN_ANOMALY":94.7782,"EPHEMERIS_TYPE":0,"CLASSIFICATION_TYPE":"U","NORAD_CAT_ID":56291,"ELEMENT_SET_NO":999,"REV_AT_EPOCH":14013,"BSTAR":0.0003418124,"MEAN_MOTION_DOT":4.417e-5,"MEAN_MOTION_DDOT":0},{"OBJECT_NAME":"STARLINK-30098","OBJECT_ID":"2023-056G","EPOCH":"2025-10-28T10:29:02.722848","MEAN_MOTION":15.02536805,"ECCENTRICITY":0.00011385,"INCLINATION":43.0029,"RA_OF_ASC_NODE":208.5584,"ARG_OF_PERICENTER":274.3385,"MEAN_ANOMALY":85.7327,"EPHEMERIS_TYPE":0,"CLASSIFICATION_TYPE":"U","NORAD_CAT_ID":56292,"ELEMENT_SET_NO":999,"REV_AT_EPOCH":14013,"BSTAR":8.385883e-5,"MEAN_MOTION_DOT":9.29e-6,"MEAN_MOTION_DDOT":0},{"OBJECT_NAME":"STARLINK-30090","OBJECT_ID":"2023-056H","EPOCH":"2025-10-28T00:45:15.166656","MEAN_MOTION":15.02536174,"ECCENTRICITY":0.00016596,"INCLINATION":43.0049,"RA_OF_ASC_NODE":211.5221,"ARG_OF_PERICENTER":261.2218,"MEAN_ANOMALY":98.8437,"EPHEMERIS_TYPE":0,"CLASSIFICATION_TYPE":"U","NORAD_CAT_ID":56293,"ELEMENT_SET_NO":999,"REV_AT_EPOCH":14006,"BSTAR":7.6994015e-5,"MEAN_MOTION_DOT":8.36e-6,"MEAN_MOTION_DDOT":0},{"OBJECT_NAME":"STARLINK-30049","OBJECT_ID":"2023-056J","EPOCH":"2025-10-28T00:40:27.286176","MEAN_MOTION":15.0254362,"ECCENTRICITY":0.00013831,"INCLINATION":43.0033,"RA_OF_ASC_NODE":211.4381,"ARG_OF_PERICENTER":238.7757,"MEAN_ANOMALY":121.295,"EPHEMERIS_TYPE":0,"CLASSIFICATION_TYPE":"U","NORAD_CAT_ID":56294,"ELEMENT_SET_NO":999,"REV_AT_EPOCH":14006,"BSTAR":-9.7425533e-5,"MEAN_MOTION_DOT":-1.52e-5,"MEAN_MOTION_DDOT":0},{"OBJECT_NAME":"STARLINK-30083","OBJECT_ID":"2023-056K","EPOCH":"2025-10-27T16:32:56.836608","MEAN_MOTION":15.02536625,"ECCENTRICITY":0.00012122,"INCLINATION":43.003,"RA_OF_ASC_NODE":187.106,"ARG_OF_PERICENTER":271.512,"MEAN_ANOMALY":88.5583,"EPHEMERIS_TYPE":0,"CLASSIFICATION_TYPE":"U","NORAD_CAT_ID":56295,"ELEMENT_SET_NO":999,"REV_AT_EPOCH":14031,"BSTAR":1.1449775e-5,"MEAN_MOTION_DOT":-4.9e-7,"MEAN_MOTION_DDOT":0},{"OBJECT_NAME":"STARLINK-30089","OBJECT_ID":"2023-056L","EPOCH":"2025-10-28T14:53:30.118272","MEAN_MOTION":15.02532958,"ECCENTRICITY":0.00013441,"INCLINATION":43.004,"RA_OF_ASC_NODE":169.0139,"ARG_OF_PERICENTER":266.5681,"MEAN_ANOMALY":93.5007,"EPHEMERIS_TYPE":0,"CLASSIFICATION_TYPE":"U","NORAD_CAT_ID":56296,"ELEMENT_SET_NO":999,"REV_AT_EPOCH":14060,"BSTAR":2.4106373e-5,"MEAN_MOTION_DOT":1.22e-6,"MEAN_MOTION_DDOT":0},{"OBJECT_NAME":"STARLINK-30086","OBJECT_ID":"2023-056M","EPOCH":"2025-10-28T11:21:46.418688","MEAN_MOTION":15.02537598,"ECCENTRICITY":0.0001082,"INCLINATION":43.0026,"RA_OF_ASC_NODE":208.759,"ARG_OF_PERICENTER":271.1644,"MEAN_ANOMALY":88.9075,"EPHEMERIS_TYPE":0,"CLASSIFICATION_TYPE":"U","NORAD_CAT_ID":56297,"ELEMENT_SET_NO":999,"REV_AT_EPOCH":14013,"BSTAR":0.00011075157,"MEAN_MOTION_DOT":1.293e-5,"MEAN_MOTION_DDOT":0},{"OBJECT_NAME":"STARLINK-30109","OBJECT_ID":"2023-056N","EPOCH":"2025-10-28T11:31:22.071648","MEAN_MOTION":15.02535099,"ECCENTRICITY":9.831e-5,"INCLINATION":43.0016,"RA_OF_ASC_NODE":208.8115,"ARG_OF_PERICENTER":267.0455,"MEAN_ANOMALY":93.0275,"EPHEMERIS_TYPE":0,"CLASSIFICATION_TYPE":"U","NORAD_CAT_ID":56298,"ELEMENT_SET_NO":999,"REV_AT_EPOCH":14019,"BSTAR":4.085627e-5,"MEAN_MOTION_DOT":3.48e-6,"MEAN_MOTION_DDOT":0},{"OBJECT_NAME":"STARLINK-30108","OBJECT_ID":"2023-056P","EPOCH":"2025-10-27T02:49:24.070944","MEAN_MOTION":15.02535175,"ECCENTRICITY":0.00011888,"INCLINATION":43.003,"RA_OF_ASC_NODE":203.6523,"ARG_OF_PERICENTER":268.4858,"MEAN_ANOMALY":91.5848,"EPHEMERIS_TYPE":0,"CLASSIFICATION_TYPE":"U","NORAD_CAT_ID":56299,"ELEMENT_SET_NO":999,"REV_AT_EPOCH":14013,"BSTAR":1.614534e-5,"MEAN_MOTION_DOT":1.5e-7,"MEAN_MOTION_DDOT":0},{"OBJECT_NAME":"STARLINK-30104","OBJECT_ID":"2023-056Q","EPOCH":"2025-10-28T10:24:15.391872","MEAN_MOTION":15.02540473,"ECCENTRICITY":0.00012627,"INCLINATION":43.003,"RA_OF_ASC_NODE":208.5439,"ARG_OF_PERICENTER":268.7411,"MEAN_ANOMALY":91.3287,"EPHEMERIS_TYPE":0,"CLASSIFICATION_TYPE":"U","NORAD_CAT_ID":56300,"ELEMENT_SET_NO":999,"REV_AT_EPOCH":14019,"BSTAR":0.00010646135,"MEAN_MOTION_DOT":1.235e-5,"MEAN_MOTION_DDOT":0},{"OBJECT_NAME":"STARLINK-30101","OBJECT_ID":"2023-056R","EPOCH":"2025-10-28T11:07:25.065984","MEAN_MOTION":15.02527269,"ECCENTRICITY":0.00012039,"INCLINATION":43.0031,"RA_OF_ASC_NODE":208.7497,"ARG_OF_PERICENTER":268.3836,"MEAN_ANOMALY":91.6868,"EPHEMERIS_TYPE":0,"CLASSIFICATION_TYPE":"U","NORAD_CAT_ID":56301,"ELEMENT_SET_NO":999,"REV_AT_EPOCH":14019,"BSTAR":2.7162e-7,"MEAN_MOTION_DOT":-2.0e-6,"MEAN_MOTION_DDOT":0},{"OBJECT_NAME":"STARLINK-30111","OBJECT_ID":"2023-056S","EPOCH":"2025-10-28T10:57:48.260448","MEAN_MOTION":15.02536846,"ECCENTRICITY":0.00011327,"INCLINATION":43.0024,"RA_OF_ASC_NODE":208.6347,"ARG_OF_PERICENTER":272.5311,"MEAN_ANOMALY":87.5401,"EPHEMERIS_TYPE":0,"CLASSIFICATION_TYPE":"U","NORAD_CAT_ID":56302,"ELEMENT_SET_NO":999,"REV_AT_EPOCH":14019,"BSTAR":5.0528566e-5,"MEAN_MOTION_DOT":4.79e-6,"MEAN_MOTION_DDOT":0},{"OBJECT_NAME":"STARLINK-30099","OBJECT_ID":"2023-056U","EPOCH":"2025-10-28T10:52:59.941056","MEAN_MOTION":15.0254065,"ECCENTRICITY":0.0001425,"INCLINATION":43.0034,"RA_OF_ASC_NODE":208.5978,"ARG_OF_PERICENTER":273.8197,"MEAN_ANOMALY":86.2483,"EPHEMERIS_TYPE":0,"CLASSIFICATION_TYPE":"U","NORAD_CAT_ID":56304,"ELEMENT_SET_NO":999,"REV_AT_EPOCH":14019,"BSTAR":9.9770095e-5,"MEAN_MOTION_DOT":1.144e-5,"MEAN_MOTION_DDOT":0},{"OBJECT_NAME":"STARLINK-30094","OBJECT_ID":"2023-056V","EPOCH":"2025-10-27T10:52:17.474592","MEAN_MOTION":15.0253336,"ECCENTRICITY":0.00010819,"INCLINATION":43.0032,"RA_OF_ASC_NODE":213.9806,"ARG_OF_PERICENTER":278.2645,"MEAN_ANOMALY":81.8075,"EPHEMERIS_TYPE":0,"CLASSIFICATION_TYPE":"U","NORAD_CAT_ID":56305,"ELEMENT_SET_NO":999,"REV_AT_EPOCH":14004,"BSTAR":6.3618168e-5,"MEAN_MOTION_DOT":6.56e-6,"MEAN_MOTION_DDOT":0},{"OBJECT_NAME":"STARLINK-30112","OBJECT_ID":"2023-056W","EPOCH":"2025-10-28T11:02:36.077856","MEAN_MOTION":15.02533309,"ECCENTRICITY":8.365e-5,"INCLINATION":43.0026,"RA_OF_ASC_NODE":208.6583,"ARG_OF_PERICENTER":271.0208,"MEAN_ANOMALY":89.0539,"EPHEMERIS_TYPE":0,"CLASSIFICATION_TYPE":"U","NORAD_CAT_ID":56306,"ELEMENT_SET_NO":999,"REV_AT_EPOCH":14019,"BSTAR":5.7460405e-5,"MEAN_MOTION_DOT":5.73e-6,"MEAN_MOTION_DDOT":0}]
